NORAD_CAT_ID,OBJECT_NAME,OBJECT_TYPE,EPOCH,MEAN_MOTION,ECCENTRICITY,INCLINATION,RA_OF_ASC_NODE,ARG_OF_PERICENTER,MEAN_ANOMALY,BSTAR,MEAN_MOTION_DOT,MEAN_MOTION_DDOT,TLE_LINE0,TLE_LINE1,TLE_LINE2,SEMIMAJOR_AXIS,PERIOD,APOGEE,PERIGEE,DECAYED
55432.0,STARLINK-5637,PAYLOAD,2023-11-15 11:10:50,14.98327187,0.0002927,70.0002,75.5173,269.1963,90.8861,-3.5451e-05,-5.16e-06,0.0,0 STARLINK-5637,1 55432U 23014AT  23319.46586103 -.00000516  00000-0 -35451-4 0  9996,2 55432  70.0002  75.5173 0002927 269.1963  90.8861 14.98327187 43520,6950.202,96.107,574.101,570.032,0.0
55432.0,STARLINK-5637,PAYLOAD,2023-11-15 12:46:58,14.98327041,0.0003055,69.9997,75.3475,267.4545,92.6264,-5.9061e-05,-7.98e-06,0.0,0 STARLINK-5637,1 55432U 23014AT  23319.53262159 -.00000798  00000-0 -59061-4 0  9991,2 55432  69.9997  75.3475 0003055 267.4545  92.6264 14.98327041 44474,6950.202,96.107,574.19,569.944,0.0
55432.0,STARLINK-5637,PAYLOAD,2023-11-15 17:35:22,14.98327354,0.0003003,70.0,74.8434,266.5477,93.5339,-4.1416e-05,-5.87e-06,0.0,0 STARLINK-5637,1 55432U 23014AT  23319.73290123 -.00000587  00000-0 -41416-4 0  9996,2 55432  70.0000  74.8434 0003003 266.5477  93.5339 14.98327354 44502,6950.201,96.107,574.153,569.979,0.0
55432.0,STARLINK-5637,PAYLOAD,2023-11-16 08:00:34,14.98330445,0.0002831,69.9997,73.3274,272.1397,87.9438,0.0001562,1.771e-05,0.0,0 STARLINK-5637,1 55432U 23014AT  23320.33373440  .00001771  00000-0  15620-3 0  9999,2 55432  69.9997  73.3274 0002831 272.1397  87.9438 14.98330445 43659,6950.192,96.107,574.024,570.089,0.0
55432.0,STARLINK-5637,PAYLOAD,2023-11-16 09:36:42,14.98327952,0.0003138,69.9999,73.1592,269.424,90.6559,0.00012561,1.406e-05,0.0,0 STARLINK-5637,1 55432U 23014AT  23320.40049620  .00001406  00000-0  12561-3 0  9993,2 55432  69.9999  73.1592 0003138 269.4240  90.6559 14.98327952 44609,6950.199,96.107,574.245,569.883,0.0
55432.0,STARLINK-5637,PAYLOAD,2023-11-17 11:14:51,14.98330565,0.0002615,70.0007,70.4673,248.3611,111.7269,8.8011e-05,9.57e-06,0.0,0 STARLINK-5637,1 55432U 23014AT  23321.46865503  .00000957  00000-0  88011-4 0  9990,2 55432  70.0007  70.4673 0002615 248.3611 111.7269 14.98330565 43829,6950.191,96.107,573.874,570.239,0.0
55432.0,STARLINK-5637,PAYLOAD,2023-11-17 14:27:04,14.98375791,0.0002678,70.0006,70.1298,259.62,100.4657,0.00058681,6.924e-05,0.0,0 STARLINK-5637,1 55432U 23014AT  23321.60213631  .00006924  00000-0  58681-3 0  9994,2 55432  70.0006  70.1298 0002678 259.6200 100.4657 14.98375791 44788,6950.051,96.104,573.778,570.055,0.0
55432.0,STARLINK-5637,PAYLOAD,2023-11-18 11:16:53,14.98326236,0.0002917,70.0,67.9424,268.8433,91.2392,0.00010951,1.214e-05,0.0,0 STARLINK-5637,1 55432U 23014AT  23322.47005789  .00001214  00000-0  10951-3 0  9998,2 55432  70.0000  67.9424 0002917 268.8433  91.2392 14.98326236 43976,6950.205,96.107,574.097,570.042,0.0
55432.0,STARLINK-5637,PAYLOAD,2023-11-19 11:18:53,14.98330463,0.0003001,70.0006,65.418,269.1219,90.9596,2.1615e-05,1.65e-06,0.0,0 STARLINK-5637,1 55432U 23014AT  23323.47145465  .00000165  00000-0  21615-4 0  9999,2 55432  70.0006  65.4180 0003001 269.1219  90.9596 14.98330463 44122,6950.191,96.107,574.142,569.971,0.0
55432.0,STARLINK-5637,PAYLOAD,2023-11-19 12:55:01,14.98330621,0.0003001,70.0006,65.2496,269.2932,90.7884,2.1793e-05,1.67e-06,0.0,0 STARLINK-5637,1 55432U 23014AT  23323.53821448  .00000167  00000-0  21793-4 0  9997,2 55432  70.0006  65.2496 0003001 269.2932  90.7884 14.98330621 45072,6950.191,96.107,574.142,569.97,0.0
55432.0,STARLINK-5637,PAYLOAD,2023-11-19 16:07:17,14.98330541,0.0002754,70.0009,64.9133,261.1281,98.9566,1.3712e-05,7.1e-07,0.0,0 STARLINK-5637,1 55432U 23014AT  23323.67173442  .00000071  00000-0  13712-4 0  9992,2 55432  70.0009  64.9133 0002754 261.1281  98.9566 14.98330541 45091,6950.191,96.107,573.97,570.142,0.0
55432.0,STARLINK-5637,PAYLOAD,2023-11-20 12:57:02,14.98333867,0.0003026,70.0008,62.725,269.2302,90.851,3.8891e-05,3.71e-06,0.0,0 STARLINK-5637,1 55432U 23014AT  23324.53961073  .00000371  00000-0  38891-4 0  9991,2 55432  70.0008  62.7250 0003026 269.2302  90.8510 14.98333867 44286,6950.181,96.107,574.149,569.943,0.0
55432.0,STARLINK-5637,PAYLOAD,2023-11-20 14:33:10,14.98333475,0.0003027,70.0008,62.5566,268.6741,91.4071,3.3544e-05,3.07e-06,0.0,0 STARLINK-5637,1 55432U 23014AT  23324.60637100  .00000307  00000-0  33544-4 0  9999,2 55432  70.0008  62.5566 0003027 268.6741  91.4071 14.98333475 45235,6950.182,96.107,574.151,569.943,0.0
55432.0,STARLINK-5637,PAYLOAD,2023-11-20 16:09:18,14.98333701,0.0003028,70.0008,62.3883,268.7745,91.3067,3.5378e-05,3.29e-06,0.0,0 STARLINK-5637,1 55432U 23014AT  23324.67313066  .00000329  00000-0  35378-4 0  9999,2 55432  70.0008  62.3883 0003028 268.7745  91.3067 14.98333701 45248,6950.181,96.107,574.151,569.942,0.0
55432.0,STARLINK-5637,PAYLOAD,2023-11-21 00:09:59,14.98328906,0.0002795,70.001,61.5452,270.5465,89.5374,-1.0919e-05,-2.23e-06,0.0,0 STARLINK-5637,1 55432U 23014AT  23325.00693502 -.00000223  00000-0 -10919-4 0  9992,2 55432  70.0010  61.5452 0002795 270.5465  89.5374 14.98328906 44356,6950.196,96.107,574.004,570.119,0.0
55432.0,STARLINK-5637,PAYLOAD,2023-11-21 12:59:03,14.98330598,0.0002853,70.0008,60.1992,261.4418,98.6418,2.9925e-05,2.64e-06,0.0,0 STARLINK-5637,1 55432U 23014AT  23325.54101204  .00000264  00000-0  29925-4 0  9994,2 55432  70.0008  60.1992 0002853 261.4418  98.6418 14.98330598 45372,6950.191,96.107,574.039,570.073,0.0
55432.0,STARLINK-5637,PAYLOAD,2023-11-21 16:11:19,14.98333546,0.0002973,70.001,59.8627,266.8774,93.2045,6.5433e-05,6.88e-06,0.0,0 STARLINK-5637,1 55432U 23014AT  23325.67452914  .00000688  00000-0  65433-4 0  9999,2 55432  70.0010  59.8627 0002973 266.8774  93.2045 14.98333546 44453,6950.182,96.107,574.113,569.981,0.0
55432.0,STARLINK-5637,PAYLOAD,2023-11-22 14:37:11,14.98342603,0.0002775,70.0015,57.5056,270.5928,89.4913,8.8673e-05,9.66e-06,0.0,0 STARLINK-5637,1 55432U 23014AT  23326.60915986  .00000966  00000-0  88673-4 0  9996,2 55432  70.0015  57.5056 0002775 270.5928  89.4913 14.98342603 45537,6950.154,96.106,573.948,570.09,0.0
55432.0,STARLINK-5637,PAYLOAD,2023-11-22 16:13:19,14.98339931,0.0002448,70.0015,57.3374,266.5986,93.4893,0.00018332,2.096e-05,0.0,0 STARLINK-5637,1 55432U 23014AT  23326.67591909  .00002096  00000-0  18332-3 0  9998,2 55432  70.0015  57.3374 0002448 266.5986  93.4893 14.98339931 44603,6950.162,96.106,573.729,570.326,0.0
55432.0,STARLINK-5637,PAYLOAD,2023-11-23 11:26:58,14.98320011,0.0002901,70.0014,55.3202,263.36,96.7229,-0.00010713,-1.371e-05,0.0,0 STARLINK-5637,1 55432U 23014AT  23327.47706024 -.00001371  00000-0 -10713-3 0  9995,2 55432  70.0014  55.3202 0002901 263.3600  96.7229 14.98320011 44723,6950.224,96.108,574.105,570.073,0.0
55432.0,STARLINK-5637,PAYLOAD,2023-11-23 13:03:06,14.98320586,0.000288,70.0014,55.1525,254.4457,105.6384,-0.00010899,-1.393e-05,0.0,0 STARLINK-5637,1 55432U 23014AT  23327.54382000 -.00001393  00000-0 -10899-3 0  9996,2 55432  70.0014  55.1525 0002880 254.4457 105.6384 14.98320586 45670,6950.222,96.108,574.089,570.085,0.0
55432.0,STARLINK-5637,PAYLOAD,2023-11-23 16:15:22,14.98321582,0.000295,70.001,54.8138,263.917,96.1653,-9.4495e-05,-1.22e-05,0.0,0 STARLINK-5637,1 55432U 23014AT  23327.67733947 -.00001220  00000-0 -94495-4 0  9994,2 55432  70.0010  54.8138 0002950 263.9170  96.1653 14.98321582 45699,6950.219,96.108,574.134,570.034,0.0
55432.0,STARLINK-5637,PAYLOAD,2023-11-24 11:28:58,14.98327881,0.0002576,70.0011,52.7941,268.2032,91.8831,-2.2079e-05,-3.56e-06,0.0,0 STARLINK-5637,1 55432U 23014AT  23328.47845678 -.00000356  00000-0 -22079-4 0  9996,2 55432  70.0011  52.7941 0002576 268.2032  91.8831 14.98327881 44875,6950.199,96.107,573.855,570.274,0.0
55432.0,STARLINK-5637,PAYLOAD,2023-11-24 13:05:06,14.98327037,0.000254,70.0012,52.6256,263.6994,96.3876,2.1596e-05,1.65e-06,0.0,0 STARLINK-5637,1 55432U 23014AT  23328.54521637  .00000165  00000-0  21596-4 0  9999,2 55432  70.0012  52.6256 0002540 263.6994  96.3876 14.98327037 45829,6950.202,96.107,573.832,570.302,0.0
55432.0,STARLINK-5637,PAYLOAD,2023-11-24 16:17:22,14.98334093,0.0002729,70.0016,52.2882,267.0945,92.9902,3.3278e-05,3.04e-06,0.0,0 STARLINK-5637,1 55432U 23014AT  23328.67873178  .00000304  00000-0  33278-4 0  9998,2 55432  70.0016  52.2882 0002729 267.0945  92.9902 14.98334093 45841,6950.18,96.107,573.942,570.149,0.0
55432.0,STARLINK-5637,PAYLOAD,2023-11-25 13:07:07,14.98329618,0.0002599,70.002,50.1012,246.9188,113.1697,0.00028243,3.278e-05,0.0,0 STARLINK-5637,1 55432U 23014AT  23329.54660924  .00003278  00000-0  28243-3 0  9996,2 55432  70.0020  50.1012 0002599 246.9188 113.1697 14.98329618 45976,6950.194,96.107,573.865,570.253,0.0
55432.0,STARLINK-5637,PAYLOAD,2023-11-25 14:43:14,14.98332293,0.0002673,70.0016,49.933,256.2909,103.7953,0.00029502,3.429e-05,0.0,0 STARLINK-5637,1 55432U 23014AT  23329.61336720  .00003429  00000-0  29502-3 0  9995,2 55432  70.0016  49.9330 0002673 256.2909 103.7953 14.98332293 45982,6950.186,96.107,573.909,570.193,0.0
55432.0,STARLINK-5637,PAYLOAD,2023-11-26 11:32:59,14.98340485,0.0002496,70.002,47.7446,254.289,105.7993,0.00014284,1.612e-05,0.0,0 STARLINK-5637,1 55432U 23014AT  23330.48124174  .00001612  00000-0  14284-3 0  9993,2 55432  70.0020  47.7446 0002496 254.2890 105.7993 14.98340485 45170,6950.16,96.106,573.76,570.291,0.0
55432.0,STARLINK-5637,PAYLOAD,2023-11-26 13:09:07,14.98342991,0.000248,70.0019,47.5765,251.4963,108.5927,0.0002019,2.318e-05,0.0,0 STARLINK-5637,1 55432U 23014AT  23330.54799821  .00002318  00000-0  20190-3 0  9994,2 55432  70.0019  47.5765 0002480 251.4963 108.5927 14.98342991 46121,6950.153,96.106,573.741,570.294,0.0
55432.0,STARLINK-5637,PAYLOAD,2023-11-26 14:45:14,14.98347966,0.0002617,70.0012,47.4075,273.2619,86.8241,0.00021853,2.517e-05,0.0,0 STARLINK-5637,1 55432U 23014AT  23330.61475425  .00002517  00000-0  21853-3 0  9991,2 55432  70.0012  47.4075 0002617 273.2619  86.8241 14.98347966 45199,6950.137,96.106,573.821,570.183,0.0
